{
    "links": {
        "self": "http://www.neowsapp.com/rest/v1/neo/3092306?api_key=iIulBulltgU6a56xZRHN4H3l9WmuAYTsLGpBGhQ2"
    },
    "id": "3092306",
    "neo_reference_id": "3092306",
    "name": "(2001 OF25)",
    "designation": "2001 OF25",
    "nasa_jpl_url": "http://ssd.jpl.nasa.gov/sbdb.cgi?sstr=3092306",
    "absolute_magnitude_h": 21.4,
    "estimated_diameter": {
        "kilometers": {
            "estimated_diameter_min": 0.1394938229,
            "estimated_diameter_max": 0.3119176705
        },
        "meters": {
            "estimated_diameter_min": 139.4938229344,
            "estimated_diameter_max": 311.9176705226
        },
        "miles": {
            "estimated_diameter_min": 0.0866774163,
            "estimated_diameter_max": 0.1938165949
        },
        "feet": {
            "estimated_diameter_min": 457.6569140361,
            "estimated_diameter_max": 1023.3519701574
        }
    },
    "is_potentially_hazardous_asteroid": false,
    "close_approach_data": [
        {
            "close_approach_date": "2001-07-21",
            "close_approach_date_full": "2001-Jul-21 17:08",
            "epoch_date_close_approach": 995735280000,
            "relative_velocity": {
                "kilometers_per_second": "12.8334122692",
                "kilometers_per_hour": "46200.2841692568",
                "miles_per_hour": "28707.0599050585"
            },
            "miss_distance": {
                "astronomical": "0.1051487457",
                "lunar": "40.9028620773",
                "kilometers": "15730028.389891659",
                "miles": "9774186.4064325342"
            },
            "orbiting_body": "Earth"
        },
        {
            "close_approach_date": "2003-08-23",
            "close_approach_date_full": "2003-Aug-23 07:48",
            "epoch_date_close_approach": 1061624880000,
            "relative_velocity": {
                "kilometers_per_second": "14.9683037108",
                "kilometers_per_hour": "53885.8933589848",
                "miles_per_hour": "33482.5985707536"
            },
            "miss_distance": {
                "astronomical": "0.4030436679",
                "lunar": "156.7839868131",
                "kilometers": "60294474.234827373",
                "miles": "37465249.0028408274"
            },
            "orbiting_body": "Earth"
        },
        {
            "close_approach_date": "2109-07-07",
            "close_approach_date_full": "2109-Jul-07 00:30",
            "epoch_date_close_approach": 4402600200000,
            "relative_velocity": {
                "kilometers_per_second": "18.1839911328",
                "kilometers_per_hour": "65462.3680780508",
                "miles_per_hour": "40675.7697649422"
            },
            "miss_distance": {
                "astronomical": "0.384332426",
                "lunar": "149.505313714",
                "kilometers": "57495312.30153262",
                "miles": "35725930.430765356"
            },
            "orbiting_body": "Earth"
        },
        {
            "close_approach_date": "2111-08-03",
            "close_approach_date_full": "2111-Aug-03 14:25",
            "epoch_date_close_approach": 4468055100000,
            "relative_velocity": {
                "kilometers_per_second": "11.6408996236",
                "kilometers_per_hour": "41907.2386449762",
                "miles_per_hour": "26039.5283680409"
            },
            "miss_distance": {
                "astronomical": "0.1167793281",
                "lunar": "45.4271586309",
                "kilometers": "17469938.743791147",
                "miles": "10855316.5676739486"
            },
            "orbiting_body": "Earth"
        }
    ],
    "orbital_data": {
        "orbit_id": "12",
        "orbit_determination_date": "2017-04-06 09:16:17",
        "first_observation_date": "2001-07-22",
        "last_observation_date": "2001-09-18",
        "data_arc_in_days": 58,
        "observations_used": 32,
        "orbit_uncertainty": "7",
        "minimum_orbit_intersection": ".0587111",
        "jupiter_tisserand_invariant": "4.179",
        "epoch_osculation": "2459000.5",
        "eccentricity": ".3509305837701263",
        "semi_major_axis": "1.627680577184525",
        "inclination": "20.37849262887348",
        "ascending_node_longitude": "301.6741727289639",
        "orbital_period": "758.4940854337606",
        "perihelion_distance": "1.056477682041864",
        "perihelion_argument": "21.55789473178261",
        "aphelion_distance": "2.198883472327187",
        "perihelion_time": "2458957.633829168468",
        "mean_anomaly": "20.34534190273398",
        "mean_motion": ".4746246634133297",
        "equinox": "J2000",
        "orbit_class": {
            "orbit_class_type": "AMO",
            "orbit_class_description": "Near-Earth asteroid orbits similar to that of 1221 Amor",
            "orbit_class_range": "1.017 AU < q (perihelion) < 1.3 AU"
        }
    },
    "is_sentry_object": false
}